CCSDS_OMM_VERS = 2.0
CREATION_DATE  = 
ORIGINATOR     = 

OBJECT_NAME    = SL-16 R/B
OBJECT_ID      = 1993-016B
CENTER_NAME    = EARTH
REF_FRAME      = TEME
TIME_SYSTEM    = UTC
MEAN_ELEMENT_THEORY = SGP/SGP4

EPOCH          = 2026-02-05T09:49:59.851200
MEAN_MOTION    = 14.15304024
ECCENTRICITY   = .001009
INCLINATION    = 71.0077
RA_OF_ASC_NODE = 282.9825
ARG_OF_PERICENTER = 358.9252
MEAN_ANOMALY   = 1.1848

EPHEMERIS_TYPE = 0
CLASSIFICATION_TYPE = U
NORAD_CAT_ID   = 22566
ELEMENT_SET_NO = 999
REV_AT_EPOCH   = 69760
BSTAR          = .21439E-4
MEAN_MOTION_DOT = -.6E-7
MEAN_MOTION_DDOT = 0

CCSDS_OMM_VERS = 2.0
CREATION_DATE  = 
ORIGINATOR     = 

OBJECT_NAME    = COSMOS 2242
OBJECT_ID      = 1993-024A
CENTER_NAME    = EARTH
REF_FRAME      = TEME
TIME_SYSTEM    = UTC
MEAN_ELEMENT_THEORY = SGP/SGP4

EPOCH          = 2026-02-05T11:22:15.199392
MEAN_MOTION    = 14.96413208
ECCENTRICITY   = .00178
INCLINATION    = 82.5196
RA_OF_ASC_NODE = 297.5284
ARG_OF_PERICENTER = 56.4795
MEAN_ANOMALY   = 303.8125

EPHEMERIS_TYPE = 0
CLASSIFICATION_TYPE = U
NORAD_CAT_ID   = 22626
ELEMENT_SET_NO = 999
REV_AT_EPOCH   = 77557
BSTAR          = .29701E-3
MEAN_MOTION_DOT = .3401E-4
MEAN_MOTION_DDOT = 0

CCSDS_OMM_VERS = 2.0
CREATION_DATE  = 
ORIGINATOR     = 

OBJECT_NAME    = SL-16 R/B
OBJECT_ID      = 1993-059B
CENTER_NAME    = EARTH
REF_FRAME      = TEME
TIME_SYSTEM    = UTC
MEAN_ELEMENT_THEORY = SGP/SGP4

EPOCH          = 2026-02-05T08:41:51.124128
MEAN_MOTION    = 14.17225935
ECCENTRICITY   = .0019483
INCLINATION    = 70.9893
RA_OF_ASC_NODE = 79.3017
ARG_OF_PERICENTER = 260.6796
MEAN_ANOMALY   = 99.2125

EPHEMERIS_TYPE = 0
CLASSIFICATION_TYPE = U
NORAD_CAT_ID   = 22803
ELEMENT_SET_NO = 999
REV_AT_EPOCH   = 67495
BSTAR          = .16848E-3
MEAN_MOTION_DOT = .293E-5
MEAN_MOTION_DDOT = 0

CCSDS_OMM_VERS = 2.0
CREATION_DATE  = 
ORIGINATOR     = 

OBJECT_NAME    = ARIANE 40 R/B
OBJECT_ID      = 1993-061H
CENTER_NAME    = EARTH
REF_FRAME      = TEME
TIME_SYSTEM    = UTC
MEAN_ELEMENT_THEORY = SGP/SGP4

EPOCH          = 2026-02-05T03:46:37.734816
MEAN_MOTION    = 14.32843322
ECCENTRICITY   = .0011037
INCLINATION    = 98.4985
RA_OF_ASC_NODE = 105.6759
ARG_OF_PERICENTER = 26.5461
MEAN_ANOMALY   = 333.6286

EPHEMERIS_TYPE = 0
CLASSIFICATION_TYPE = U
NORAD_CAT_ID   = 22830
ELEMENT_SET_NO = 999
REV_AT_EPOCH   = 68944
BSTAR          = .11526945E-3
MEAN_MOTION_DOT = .271E-5
MEAN_MOTION_DDOT = 0

CCSDS_OMM_VERS = 2.0
CREATION_DATE  = 
ORIGINATOR     = 

OBJECT_NAME    = COSMOS 2278
OBJECT_ID      = 1994-023A
CENTER_NAME    = EARTH
REF_FRAME      = TEME
TIME_SYSTEM    = UTC
MEAN_ELEMENT_THEORY = SGP/SGP4

EPOCH          = 2026-02-05T11:44:06.860256
MEAN_MOTION    = 14.14364522
ECCENTRICITY   = .000648
INCLINATION    = 71.0505
RA_OF_ASC_NODE = 242.4675
ARG_OF_PERICENTER = 74.1045
MEAN_ANOMALY   = 286.0791

EPHEMERIS_TYPE = 0
CLASSIFICATION_TYPE = U
NORAD_CAT_ID   = 23087
ELEMENT_SET_NO = 999
REV_AT_EPOCH   = 64025
BSTAR          = -.81191E-4
MEAN_MOTION_DOT = -.203E-5
MEAN_MOTION_DDOT = 0

CCSDS_OMM_VERS = 2.0
CREATION_DATE  = 
ORIGINATOR     = 

OBJECT_NAME    = SL-16 R/B
OBJECT_ID      = 1994-023B
CENTER_NAME    = EARTH
REF_FRAME      = TEME
TIME_SYSTEM    = UTC
MEAN_ELEMENT_THEORY = SGP/SGP4

EPOCH          = 2026-02-05T06:24:53.389440
MEAN_MOTION    = 14.15003666
ECCENTRICITY   = .0004431
INCLINATION    = 70.9999
RA_OF_ASC_NODE = 138.9793
ARG_OF_PERICENTER = 315.5247
MEAN_ANOMALY   = 44.5520

EPHEMERIS_TYPE = 0
CLASSIFICATION_TYPE = U
NORAD_CAT_ID   = 23088
ELEMENT_SET_NO = 999
REV_AT_EPOCH   = 64150
BSTAR          = -.20087E-4
MEAN_MOTION_DOT = -.87E-6
MEAN_MOTION_DDOT = 0

CCSDS_OMM_VERS = 2.0
CREATION_DATE  = 
ORIGINATOR     = 

OBJECT_NAME    = SL-16 R/B
OBJECT_ID      = 1994-074B
CENTER_NAME    = EARTH
REF_FRAME      = TEME
TIME_SYSTEM    = UTC
MEAN_ELEMENT_THEORY = SGP/SGP4

EPOCH          = 2026-02-05T07:38:14.265024
MEAN_MOTION    = 14.79368711
ECCENTRICITY   = .0005934
INCLINATION    = 97.7151
RA_OF_ASC_NODE = 68.4409
ARG_OF_PERICENTER = 339.2077
MEAN_ANOMALY   = 31.4472

EPHEMERIS_TYPE = 0
CLASSIFICATION_TYPE = U
NORAD_CAT_ID   = 23343
ELEMENT_SET_NO = 999
REV_AT_EPOCH   = 68246
BSTAR          = .9809E-4
MEAN_MOTION_DOT = .682E-5
MEAN_MOTION_DDOT = 0

CCSDS_OMM_VERS = 2.0
CREATION_DATE  = 
ORIGINATOR     = 

OBJECT_NAME    = SL-16 R/B
OBJECT_ID      = 1994-077B
CENTER_NAME    = EARTH
REF_FRAME      = TEME
TIME_SYSTEM    = UTC
MEAN_ELEMENT_THEORY = SGP/SGP4

EPOCH          = 2026-02-05T01:11:22.432416
MEAN_MOTION    = 14.15556609
ECCENTRICITY   = .00044609
INCLINATION    = 70.9814
RA_OF_ASC_NODE = 61.1584
ARG_OF_PERICENTER = 240.2213
MEAN_ANOMALY   = 119.8466

EPHEMERIS_TYPE = 0
CLASSIFICATION_TYPE = U
NORAD_CAT_ID   = 23405
ELEMENT_SET_NO = 999
REV_AT_EPOCH   = 61161
BSTAR          = -.15244079E-4
MEAN_MOTION_DOT = -.78E-6
MEAN_MOTION_DDOT = 0

CCSDS_OMM_VERS = 2.0
CREATION_DATE  = 
ORIGINATOR     = 

OBJECT_NAME    = ARIANE 40+ R/B
OBJECT_ID      = 1995-021B
CENTER_NAME    = EARTH
REF_FRAME      = TEME
TIME_SYSTEM    = UTC
MEAN_ELEMENT_THEORY = SGP/SGP4

EPOCH          = 2026-02-05T10:07:23.698848
MEAN_MOTION    = 14.39748308
ECCENTRICITY   = .0005893
INCLINATION    = 98.4563
RA_OF_ASC_NODE = 108.3309
ARG_OF_PERICENTER = 231.9743
MEAN_ANOMALY   = 138.4753

EPHEMERIS_TYPE = 0
CLASSIFICATION_TYPE = U
NORAD_CAT_ID   = 23561
ELEMENT_SET_NO = 999
REV_AT_EPOCH   = 61460
BSTAR          = .15059E-3
MEAN_MOTION_DOT = .428E-5
MEAN_MOTION_DDOT = 0

CCSDS_OMM_VERS = 2.0
CREATION_DATE  = 
ORIGINATOR     = 

OBJECT_NAME    = SL-16 R/B
OBJECT_ID      = 1995-058B
CENTER_NAME    = EARTH
REF_FRAME      = TEME
TIME_SYSTEM    = UTC
MEAN_ELEMENT_THEORY = SGP/SGP4

EPOCH          = 2026-02-05T08:06:11.058336
MEAN_MOTION    = 14.15490283
ECCENTRICITY   = .0012488
INCLINATION    = 71.0188
RA_OF_ASC_NODE = 248.1776
ARG_OF_PERICENTER = 178.5752
MEAN_ANOMALY   = 181.5408

EPHEMERIS_TYPE = 0
CLASSIFICATION_TYPE = U
NORAD_CAT_ID   = 23705
ELEMENT_SET_NO = 999
REV_AT_EPOCH   = 56327
BSTAR          = .16903E-3
MEAN_MOTION_DOT = .283E-5
MEAN_MOTION_DDOT = 0

CCSDS_OMM_VERS = 2.0
CREATION_DATE  = 
ORIGINATOR     = 

OBJECT_NAME    = SL-16 R/B
OBJECT_ID      = 1996-051B
CENTER_NAME    = EARTH
REF_FRAME      = TEME
TIME_SYSTEM    = UTC
MEAN_ELEMENT_THEORY = SGP/SGP4

EPOCH          = 2026-02-05T07:18:58.036896
MEAN_MOTION    = 14.12406447
ECCENTRICITY   = .0017775
INCLINATION    = 70.7566
RA_OF_ASC_NODE = 243.7867
ARG_OF_PERICENTER = 193.1471
MEAN_ANOMALY   = 166.9188

EPHEMERIS_TYPE = 0
CLASSIFICATION_TYPE = U
NORAD_CAT_ID   = 24298
ELEMENT_SET_NO = 999
REV_AT_EPOCH   = 51707
BSTAR          = .73168E-4
MEAN_MOTION_DOT = .86E-6
MEAN_MOTION_DDOT = 0

CCSDS_OMM_VERS = 2.0
CREATION_DATE  = 
ORIGINATOR     = 

OBJECT_NAME    = ORBVIEW 2 (SEASTAR)
OBJECT_ID      = 1997-037A
CENTER_NAME    = EARTH
REF_FRAME      = TEME
TIME_SYSTEM    = UTC
MEAN_ELEMENT_THEORY = SGP/SGP4

EPOCH          = 2026-02-05T10:11:03.713856
MEAN_MOTION    = 14.35469248
ECCENTRICITY   = .0002809
INCLINATION    = 98.8510
RA_OF_ASC_NODE = 199.8916
ARG_OF_PERICENTER = 137.9775
MEAN_ANOMALY   = 222.1625

EPHEMERIS_TYPE = 0
CLASSIFICATION_TYPE = U
NORAD_CAT_ID   = 24883
ELEMENT_SET_NO = 999
REV_AT_EPOCH   = 50384
BSTAR          = .16208E-3
MEAN_MOTION_DOT = .419E-5
MEAN_MOTION_DDOT = 0

