SL-16 R/B               
1 22566U 93016B   26036.40972050 -.00000006  00000+0  21439-4 0  9993
2 22566  71.0077 282.9825 0010090 358.9252   1.1848 14.15304024697609
COSMOS 2242             
1 22626U 93024A   26036.47378703  .00003401  00000+0  29701-3 0  9991
2 22626  82.5196 297.5284 0017800  56.4795 303.8125 14.96413208775571
SL-16 R/B               
1 22803U 93059B   26036.36239727  .00000293  00000+0  16848-3 0  9990
2 22803  70.9893  79.3017 0019483 260.6796  99.2125 14.17225935674959
ARIANE 40 R/B           
1 22830U 93061H   26036.15738119  .00000271  00000+0  11527-3 0  9994
2 22830  98.4985 105.6759 0011037  26.5461 333.6286 14.32843322689443
COSMOS 2278             
1 23087U 94023A   26036.48896829 -.00000203  00000+0 -81191-4 0  9999
2 23087  71.0505 242.4675 0006480  74.1045 286.0791 14.14364522640251
SL-16 R/B               
1 23088U 94023B   26036.26728460 -.00000087  00000+0 -20087-4 0  9998
2 23088  70.9999 138.9793 0004431 315.5247  44.5520 14.15003666641503
SL-16 R/B               
1 23343U 94074B   26036.31822066  .00000682  00000+0  98090-4 0  9999
2 23343  97.7151  68.4409 0005934 339.2077  31.4472 14.79368711682464
SL-16 R/B               
1 23405U 94077B   26036.04956519 -.00000078  00000+0 -15244-4 0  9993
2 23405  70.9814  61.1584 0004460 240.2213 119.8466 14.15556609611610
ARIANE 40+ R/B          
1 23561U 95021B   26036.42180207  .00000428  00000+0  15059-3 0  9991
2 23561  98.4563 108.3309 0005893 231.9743 138.4753 14.39748308614607
SL-16 R/B               
1 23705U 95058B   26036.33762799  .00000283  00000+0  16903-3 0  9991
2 23705  71.0188 248.1776 0012488 178.5752 181.5408 14.15490283563274
SL-16 R/B               
1 24298U 96051B   26036.30483839  .00000086  00000+0  73168-4 0  9993
2 24298  70.7566 243.7867 0017775 193.1471 166.9188 14.12406447517070
ORBVIEW 2 (SEASTAR)     
1 24883U 97037A   26036.42434854  .00000419  00000+0  16208-3 0  9995
2 24883  98.8510 199.8916 0002809 137.9775 222.1625 14.35469248503845
